[Satellite]
VERSION=1.1
NAME=EUTELSAT W2M
NICKNAME=EUTELSAT W2M
TLE1=1 33460U 08065B   15054.19738365  .00000099  00000-0  00000+0 0  9999
TLE2=2 33460   0.0754 302.6671 0001285  30.0611 299.1329  1.00270345 22670
